ONEWEB-0435             
1 51632U 22012L   24145.54707820  .00000219  00000+0  59190-3 0  9991
2 51632  87.8962 186.0922 0002430 102.2926 257.8474 13.10377492110611
ONEWEB-0436             
1 51633U 22012M   24145.54657287  .00000085  00000+0  18575-3 0  9996
2 51633  87.9161 155.8631 0002168  96.0420 264.0958 13.17650212114434
ONEWEB-0438             
1 51634U 22012N   24145.60681899 -.00004982  00000+0 -14311-1 0  9994
2 51634  87.8957 186.0805 0001802  94.9974 265.1360 13.10394247110656
ONEWEB-0439             
1 51635U 22012P   24145.61014347 -.00000441  00000+0 -12998-2 0  9990
2 51635  87.8962 186.0647 0002124  94.0616 266.0754 13.10373665110635
ONEWEB-0442             
1 51636U 22012Q   24145.53787874  .00000079  00000+0  17069-3 0  9994
2 51636  87.9164 155.8985 0001620  67.1967 292.9335 13.17650562115718
ONEWEB-0443             
1 51637U 22012R   24145.55765312  .00000109  00000+0  24884-3 0  9997
2 51637  87.9167 155.9023 0002088 104.9858 255.1505 13.17650274114476
ONEWEB-0444             
1 51638U 22012S   24145.60018108 -.00000591  00000+0 -17289-2 0  9995
2 51638  87.8951 186.0895 0002145  99.2452 260.8918 13.10370795110645
ONEWEB-0445             
1 51639U 22012T   24145.54541738  .00001639  00000+0  46594-2 0  9992
2 51639  87.8954 186.0740 0002066  87.3774 272.7590 13.10370530110640
